[{"OBJECT_NAME":"HST","OBJECT_ID":"1990-037B","EPOCH":"2026-02-01T22:01:39.909792","MEAN_MOTION":15.28899911,"ECCENTRICITY":0.00020038,"INCLINATION":28.4672,"RA_OF_ASC_NODE":283.9238,"ARG_OF_PERICENTER":77.62,"MEAN_ANOMALY":282.4619,"EPHEMERIS_TYPE":0,"CLASSIFICATION_TYPE":"U","NORAD_CAT_ID":20580,"ELEMENT_SET_NO":999,"REV_AT_EPOCH":76783,"BSTAR":0.0002475776,"MEAN_MOTION_DOT":7.382e-5,"MEAN_MOTION_DDOT":0},{"OBJECT_NAME":"POLAR","OBJECT_ID":"1996-013A","EPOCH":"2026-02-01T11:28:16.531968","MEAN_MOTION":1.29845968,"ECCENTRICITY":0.63329512,"INCLINATION":79.6968,"RA_OF_ASC_NODE":228.594,"ARG_OF_PERICENTER":213.6691,"MEAN_ANOMALY":82.0038,"EPHEMERIS_TYPE":0,"CLASSIFICATION_TYPE":"U","NORAD_CAT_ID":23802,"ELEMENT_SET_NO":999,"REV_AT_EPOCH":14309,"BSTAR":0,"MEAN_MOTION_DOT":2.48e-6,"MEAN_MOTION_DDOT":0},{"OBJECT_NAME":"SWAS","OBJECT_ID":"1998-071A","EPOCH":"2026-02-01T22:20:41.589024","MEAN_MOTION":15.08508222,"ECCENTRICITY":0.00028366,"INCLINATION":69.8944,"RA_OF_ASC_NODE":216.0466,"ARG_OF_PERICENTER":123.6897,"MEAN_ANOMALY":236.4537,"EPHEMERIS_TYPE":0,"CLASSIFICATION_TYPE":"U","NORAD_CAT_ID":25560,"ELEMENT_SET_NO":999,"REV_AT_EPOCH":47686,"BSTAR":0.00017630531,"MEAN_MOTION_DOT":2.653e-5,"MEAN_MOTION_DDOT":0},{"OBJECT_NAME":"CXO","OBJECT_ID":"1999-040B","EPOCH":"2026-02-03T12:12:55.204128","MEAN_MOTION":0.37804724,"ECCENTRICITY":0.80506741,"INCLINATION":54.0018,"RA_OF_ASC_NODE":120.6888,"ARG_OF_PERICENTER":310.8579,"MEAN_ANOMALY":0.1951,"EPHEMERIS_TYPE":0,"CLASSIFICATION_TYPE":"U","NORAD_CAT_ID":25867,"ELEMENT_SET_NO":999,"REV_AT_EPOCH":1682,"BSTAR":0,"MEAN_MOTION_DOT":7.39e-6,"MEAN_MOTION_DDOT":0},{"OBJECT_NAME":"XMM-NEWTON","OBJECT_ID":"1999-066A","EPOCH":"2026-01-31T17:24:27.994464","MEAN_MOTION":0.50131279,"ECCENTRICITY":0.47247805,"INCLINATION":65.1743,"RA_OF_ASC_NODE":284.7836,"ARG_OF_PERICENTER":67.3227,"MEAN_ANOMALY":359.9893,"EPHEMERIS_TYPE":0,"CLASSIFICATION_TYPE":"U","NORAD_CAT_ID":25989,"ELEMENT_SET_NO":999,"REV_AT_EPOCH":2232,"BSTAR":0,"MEAN_MOTION_DOT":9.4e-7,"MEAN_MOTION_DDOT":0},{"OBJECT_NAME":"TERRA","OBJECT_ID":"1999-068A","EPOCH":"2026-02-01T21:42:57.489984","MEAN_MOTION":14.60973328,"ECCENTRICITY":0.00011279,"INCLINATION":97.9667,"RA_OF_ASC_NODE":87.6929,"ARG_OF_PERICENTER":319.2821,"MEAN_ANOMALY":146.6824,"EPHEMERIS_TYPE":0,"CLASSIFICATION_TYPE":"U","NORAD_CAT_ID":25994,"ELEMENT_SET_NO":999,"REV_AT_EPOCH":38985,"BSTAR":0.00010420115,"MEAN_MOTION_DOT":4.66e-6,"MEAN_MOTION_DDOT":0},{"OBJECT_NAME":"CLUSTER II-FM7 (SAMBA)","OBJECT_ID":"2000-041A","EPOCH":"2026-01-23T01:52:25.992768","MEAN_MOTION":0.44786329,"ECCENTRICITY":0.88359543,"INCLINATION":148.3592,"RA_OF_ASC_NODE":29.7174,"ARG_OF_PERICENTER":245.6118,"MEAN_ANOMALY":359.2301,"EPHEMERIS_TYPE":0,"CLASSIFICATION_TYPE":"U","NORAD_CAT_ID":26410,"ELEMENT_SET_NO":999,"REV_AT_EPOCH":1966,"BSTAR":0,"MEAN_MOTION_DOT":4.677e-5,"MEAN_MOTION_DDOT":0},{"OBJECT_NAME":"CLUSTER II-FM8 (TANGO)","OBJECT_ID":"2000-045B","EPOCH":"2026-01-19T18:49:47.267040","MEAN_MOTION":0.44425532,"ECCENTRICITY":0.88330347,"INCLINATION":148.5838,"RA_OF_ASC_NODE":29.9991,"ARG_OF_PERICENTER":245.7591,"MEAN_ANOMALY":359.3805,"EPHEMERIS_TYPE":0,"CLASSIFICATION_TYPE":"U","NORAD_CAT_ID":26464,"ELEMENT_SET_NO":999,"REV_AT_EPOCH":1964,"BSTAR":0,"MEAN_MOTION_DOT":5.071e-5,"MEAN_MOTION_DDOT":0},{"OBJECT_NAME":"ODIN","OBJECT_ID":"2001-007A","EPOCH":"2026-02-01T22:15:33.713856","MEAN_MOTION":15.55308254,"ECCENTRICITY":0.00015609,"INCLINATION":97.4139,"RA_OF_ASC_NODE":67.5852,"ARG_OF_PERICENTER":311.6084,"MEAN_ANOMALY":48.5036,"EPHEMERIS_TYPE":0,"CLASSIFICATION_TYPE":"U","NORAD_CAT_ID":26702,"ELEMENT_SET_NO":999,"REV_AT_EPOCH":36827,"BSTAR":0.00052288158,"MEAN_MOTION_DOT":0.00035454,"MEAN_MOTION_DDOT":0},{"OBJECT_NAME":"TIMED","OBJECT_ID":"2001-055B","EPOCH":"2026-02-01T18:38:51.892800","MEAN_MOTION":14.94894284,"ECCENTRICITY":0.00019315,"INCLINATION":74.0696,"RA_OF_ASC_NODE":147.5939,"ARG_OF_PERICENTER":316.2636,"MEAN_ANOMALY":43.8395,"EPHEMERIS_TYPE":0,"CLASSIFICATION_TYPE":"U","NORAD_CAT_ID":26998,"ELEMENT_SET_NO":999,"REV_AT_EPOCH":31058,"BSTAR":0.0001636261,"MEAN_MOTION_DOT":1.746e-5,"MEAN_MOTION_DDOT":0},{"OBJECT_NAME":"CORIOLIS","OBJECT_ID":"2003-001A","EPOCH":"2026-02-01T23:20:55.490208","MEAN_MOTION":14.19897406,"ECCENTRICITY":0.00130801,"INCLINATION":98.7151,"RA_OF_ASC_NODE":41.9104,"ARG_OF_PERICENTER":240.4289,"MEAN_ANOMALY":119.5585,"EPHEMERIS_TYPE":0,"CLASSIFICATION_TYPE":"U","NORAD_CAT_ID":27640,"ELEMENT_SET_NO":999,"REV_AT_EPOCH":19503,"BSTAR":9.0479101e-5,"MEAN_MOTION_DOT":1.48e-6,"MEAN_MOTION_DDOT":0},{"OBJECT_NAME":"SORCE","OBJECT_ID":"2003-004A","EPOCH":"2026-02-01T19:36:54.002016","MEAN_MOTION":15.02784956,"ECCENTRICITY":0.00163095,"INCLINATION":39.9919,"RA_OF_ASC_NODE":313.5249,"ARG_OF_PERICENTER":164.1672,"MEAN_ANOMALY":195.9634,"EPHEMERIS_TYPE":0,"CLASSIFICATION_TYPE":"U","NORAD_CAT_ID":27651,"ELEMENT_SET_NO":999,"REV_AT_EPOCH":25152,"BSTAR":0.00025774935,"MEAN_MOTION_DOT":3.369e-5,"MEAN_MOTION_DDOT":0},{"OBJECT_NAME":"MOST","OBJECT_ID":"2003-031D","EPOCH":"2026-02-01T23:27:52.384896","MEAN_MOTION":14.21288551,"ECCENTRICITY":0.00088125,"INCLINATION":98.7074,"RA_OF_ASC_NODE":42.5744,"ARG_OF_PERICENTER":284.7329,"MEAN_ANOMALY":75.2872,"EPHEMERIS_TYPE":0,"CLASSIFICATION_TYPE":"U","NORAD_CAT_ID":27843,"ELEMENT_SET_NO":999,"REV_AT_EPOCH":17150,"BSTAR":6.1713467e-5,"MEAN_MOTION_DOT":9.1e-7,"MEAN_MOTION_DDOT":0},{"OBJECT_NAME":"SCISAT 1","OBJECT_ID":"2003-036A","EPOCH":"2026-02-01T13:12:33.647616","MEAN_MOTION":14.81238881,"ECCENTRICITY":0.00071885,"INCLINATION":73.9291,"RA_OF_ASC_NODE":80.8025,"ARG_OF_PERICENTER":188.227,"MEAN_ANOMALY":171.879,"EPHEMERIS_TYPE":0,"CLASSIFICATION_TYPE":"U","NORAD_CAT_ID":27858,"ELEMENT_SET_NO":999,"REV_AT_EPOCH":21136,"BSTAR":0.00010799735,"MEAN_MOTION_DOT":8.05e-6,"MEAN_MOTION_DDOT":0},{"OBJECT_NAME":"SWIFT","OBJECT_ID":"2004-047A","EPOCH":"2026-02-01T14:46:33.462048","MEAN_MOTION":15.5565553,"ECCENTRICITY":0.00028117,"INCLINATION":20.5535,"RA_OF_ASC_NODE":141.0201,"ARG_OF_PERICENTER":216.4658,"MEAN_ANOMALY":143.5594,"EPHEMERIS_TYPE":0,"CLASSIFICATION_TYPE":"U","NORAD_CAT_ID":28485,"ELEMENT_SET_NO":999,"REV_AT_EPOCH":16563,"BSTAR":0.00072674124,"MEAN_MOTION_DOT":0.00053125,"MEAN_MOTION_DDOT":0},{"OBJECT_NAME":"HINODE (SOLAR-B)","OBJECT_ID":"2006-041A","EPOCH":"2026-02-01T22:25:18.784416","MEAN_MOTION":14.68409023,"ECCENTRICITY":0.00174765,"INCLINATION":98.0635,"RA_OF_ASC_NODE":51.0403,"ARG_OF_PERICENTER":1.767,"MEAN_ANOMALY":358.3593,"EPHEMERIS_TYPE":0,"CLASSIFICATION_TYPE":"U","NORAD_CAT_ID":29479,"ELEMENT_SET_NO":999,"REV_AT_EPOCH":3502,"BSTAR":0.00013666284,"MEAN_MOTION_DOT":7.43e-6,"MEAN_MOTION_DDOT":0},{"OBJECT_NAME":"SHIJIAN-6 02A (SJ-6 02A)","OBJECT_ID":"2006-046A","EPOCH":"2026-02-01T23:44:24.986112","MEAN_MOTION":15.1514584,"ECCENTRICITY":0.00019198,"INCLINATION":97.6555,"RA_OF_ASC_NODE":73.0751,"ARG_OF_PERICENTER":231.5415,"MEAN_ANOMALY":128.5645,"EPHEMERIS_TYPE":0,"CLASSIFICATION_TYPE":"U","NORAD_CAT_ID":29505,"ELEMENT_SET_NO":999,"REV_AT_EPOCH":5178,"BSTAR":0.00030360409,"MEAN_MOTION_DOT":5.624e-5,"MEAN_MOTION_DDOT":0}]
