HST                     
1 20580U 90037B   26032.91782303  .00007382  00000+0  24758-3 0  9998
2 20580  28.4672 283.9238 0002003  77.6200 282.4619 15.28899911767834
POLAR                   
1 23802U 96013A   26032.47796912  .00000248  00000+0  00000+0 0  9994
2 23802  79.6968 228.5940 6332951 213.6691  82.0038  1.29845968143099
SWAS                    
1 25560U 98071A   26032.93103691  .00002653  00000+0  17631-3 0  9994
2 25560  69.8944 216.0466 0002836 123.6897 236.4537 15.08508222476864
CXO                     
1 25867U 99040B   26034.50897227  .00000739  00000+0  00000+0 0  9992
2 25867  54.0018 120.6888 8050674 310.8579   0.1951  0.37804724 16822
XMM-NEWTON              
1 25989U 99066A   26031.72532401  .00000094  00000+0  00000+0 0  9990
2 25989  65.1743 284.7836 4724780  67.3227 359.9893  0.50131279 22321
TERRA                   
1 25994U 99068A   26032.90483206  .00000466  00000+0  10420-3 0  9991
2 25994  97.9667  87.6929 0001127 319.2821 146.6824 14.60973328389850
CLUSTER II-FM7 (SAMBA)  
1 26410U 00041A   26023.07807862  .00004677  00000+0  00000+0 0  9991
2 26410 148.3592  29.7174 8835954 245.6118 359.2301  0.44786329 19664
CLUSTER II-FM8 (TANGO)  
1 26464U 00045B   26019.78457485  .00005071  00000+0  00000+0 0  9998
2 26464 148.5838  29.9991 8833034 245.7591 359.3805  0.44425532 19644
ODIN                    
1 26702U 01007A   26032.92747354  .00035454  00000+0  52288-3 0  9997
2 26702  97.4139  67.5852 0001560 311.6084  48.5036 15.55308254368270
TIMED                   
1 26998U 01055B   26032.77698950  .00001746  00000+0  16363-3 0  9998
2 26998  74.0696 147.5939 0001931 316.2636  43.8395 14.94894284310589
CORIOLIS                
1 27640U 03001A   26032.97286447  .00000148  00000+0  90479-4 0  9998
2 27640  98.7151  41.9104 0013080 240.4289 119.5585 14.19897406195033
SORCE                   
1 27651U 03004A   26032.81729169  .00003369  00000+0  25775-3 0  9993
2 27651  39.9919 313.5249 0016309 164.1672 195.9634 15.02784956251525
MOST                    
1 27843U 03031D   26032.97768964  .00000091  00000+0  61713-4 0  9991
2 27843  98.7074  42.5744 0008812 284.7329  75.2872 14.21288551171503
SCISAT 1                
1 27858U 03036A   26032.55038944  .00000805  00000+0  10800-3 0  9997
2 27858  73.9291  80.8025 0007188 188.2270 171.8790 14.81238881211368
SWIFT                   
1 28485U 04047A   26032.61566507  .00053125  00000+0  72674-3 0  9995
2 28485  20.5535 141.0201 0002811 216.4658 143.5594 15.55655530165634
HINODE (SOLAR-B)        
1 29479U 06041A   26032.93424519  .00000743  00000+0  13666-3 0  9990
2 29479  98.0635  51.0403 0017476   1.7670 358.3593 14.68409023 35026
SHIJIAN-6 02A (SJ-6 02A)
1 29505U 06046A   26032.98917808  .00005624  00000+0  30360-3 0  9991
2 29505  97.6555  73.0751 0001919 231.5415 128.5645 15.15145840 51780
